{
    "type": "FeatureCollection",
    "features": [
        {
            "type": "Feature",
            "geometry": {
                "type": "Point",
                "coordinates": [
                    77.504626,
                    12.902795
                ]
            },
            "properties": {
                "label": "JSS Academy of Technical Education - JSSATE-B Campus, Dr.Vishnuvardhan Rd Uttarahalli-Kengeri Main Road, JSS Campus Rd, Bengaluru, 560060, India"
            },
            "bbox": [
                77.504626,
                12.902795,
                77.504626,
                12.902795
            ]
        },
        {
            "type": "Feature",
            "geometry": {
                "type": "Polygon",
                "coordinates": [
                    [
                        [
                            77.503709,
                            12.900179
                        ],
                        [
                            77.504157,
                            12.899066
                        ],
                        [
                            77.505225,
                            12.898494
                        ],
                        [
                            77.506953,
                            12.89856
                        ],
                        [
                            77.506851,
                            12.901103
                        ],
                        [
                            77.506275,
                            12.901202
                        ],
                        [
                            77.507359,
                            12.903811
                        ],
                        [
                            77.505563,
                            12.904455
                        ],
                        [
                            77.505259,
                            12.903035
                        ],
                        [
                            77.504067,
                            12.903436
                        ],
                        [
                            77.503717,
                            12.902024
                        ],
                        [
                            77.503587,
                            12.901312
                        ],
                        [
                            77.503526,
                            12.900871
                        ],
                        [
                            77.503709,
                            12.900179
                        ]
                    ]
                ]
            },
            "properties": {},
            "bbox": [
                77.503526,
                12.898494,
                77.507359,
                12.904455
            ]
        }
    ]
}