{
  "type": "FeatureCollection",
  "name": "JSSATE_Bangalore_Campus_Paths",
  "crs": {
    "type": "name",
    "properties": {
      "name": "urn:ogc:def:crs:OGC:1.3:CRS84"
    }
  },
  "features": [
    {
      "type": "Feature",
      "id": "path-main-entrance",
      "properties": {
        "id": "path-main-entrance",
        "name": "Main Entrance Avenue",
        "type": "road",
        "surface": "asphalt",
        "accessible": true,
        "width_m": 8.0,
        "description": "Main entrance boulevard connecting Dr. Vishnuvardhan Road Gate to Campus Central Circle"
      },
      "geometry": {
        "type": "LineString",
        "coordinates": [
          [77.50560, 12.90442],
          [77.50558, 12.90380],
          [77.50555, 12.90300],
          [77.50552, 12.90220]
        ]
      }
    },
    {
      "type": "Feature",
      "id": "path-admin-drive",
      "properties": {
        "id": "path-admin-drive",
        "name": "Admin & Visitor Drive",
        "type": "road",
        "surface": "paved",
        "accessible": true,
        "width_m": 6.0,
        "description": "Access drive to Admin Block A portico and visitor parking area"
      },
      "geometry": {
        "type": "LineString",
        "coordinates": [
          [77.50555, 12.90300],
          [77.50620, 12.90280],
          [77.50640, 12.90220],
          [77.50635, 12.90170]
        ]
      }
    },
    {
      "type": "Feature",
      "id": "path-academic-walkway",
      "properties": {
        "id": "path-academic-walkway",
        "name": "Central Academic Walkway",
        "type": "pedestrian",
        "surface": "paver_blocks",
        "accessible": true,
        "width_m": 4.5,
        "description": "Pedestrian promenade between Library Block B, Central Quad, and Block C"
      },
      "geometry": {
        "type": "LineString",
        "coordinates": [
          [77.50460, 12.90240],
          [77.50510, 12.90230],
          [77.50552, 12.90220],
          [77.50600, 12.90215],
          [77.50640, 12.90220]
        ]
      }
    },
    {
      "type": "Feature",
      "id": "path-south-campus-road",
      "properties": {
        "id": "path-south-campus-road",
        "name": "South Campus Avenue",
        "type": "road",
        "surface": "asphalt",
        "accessible": true,
        "width_m": 6.5,
        "description": "Connecting Central Circle to Mechanical Workshops and Boys Hostel"
      },
      "geometry": {
        "type": "LineString",
        "coordinates": [
          [77.50552, 12.90220],
          [77.50548, 12.90150],
          [77.50545, 12.90080],
          [77.50560, 12.90010],
          [77.50580, 12.89940],
          [77.50560, 12.89900],
          [77.50490, 12.89890]
        ]
      }
    },
    {
      "type": "Feature",
      "id": "path-hostel-walkway",
      "properties": {
        "id": "path-hostel-walkway",
        "name": "West Residential Walkway",
        "type": "pedestrian",
        "surface": "paved",
        "accessible": true,
        "width_m": 4.0,
        "description": "Walkway connecting Central Quad, Cafeteria, and Student Hostels"
      },
      "geometry": {
        "type": "LineString",
        "coordinates": [
          [77.50552, 12.90220],
          [77.50500, 12.90190],
          [77.50450, 12.90150],
          [77.50420, 12.90080],
          [77.50390, 12.90010],
          [77.50420, 12.89940]
        ]
      }
    },
    {
      "type": "Feature",
      "id": "path-step-connect",
      "properties": {
        "id": "path-step-connect",
        "name": "STEP Innovation Walk",
        "type": "pedestrian",
        "surface": "paver_blocks",
        "accessible": true,
        "width_m": 3.5,
        "description": "Walkway connecting Main Boulevard to Science & Technology Entrepreneurs Park"
      },
      "geometry": {
        "type": "LineString",
        "coordinates": [
          [77.50558, 12.90380],
          [77.50580, 12.90370],
          [77.50600, 12.90360]
        ]
      }
    },
    {
      "type": "Feature",
      "id": "path-sports-loop",
      "properties": {
        "id": "path-sports-loop",
        "name": "Sports Ground Promenade",
        "type": "pedestrian",
        "surface": "gravel",
        "accessible": false,
        "width_m": 3.0,
        "description": "Perimeter jogger and spectator path surrounding the Main Athletic Ground"
      },
      "geometry": {
        "type": "LineString",
        "coordinates": [
          [77.50560, 12.90080],
          [77.50640, 12.90080],
          [77.50670, 12.90020],
          [77.50650, 12.89940],
          [77.50580, 12.89940],
          [77.50560, 12.90010]
        ]
      }
    }
  ]
}
